{
  "type": "FeatureCollection",
  "features": [
    {
      "type": "Feature",
      "properties": {
        "norad_id": 37781,
        "name": "HAIYANG-2A",
        "group": "resource",
        "lat": 79.11132190380741,
        "lon": -131.681669975852,
        "alt_km": 959.4529818915507,
        "timestamp": "2025-12-14T14:39:29.033210+00:00",
        "meta_object_name": "HAIYANG-2A",
        "meta_object_id": "2011-043A",
        "meta_epoch": "2025-12-14T00:15:50.526144",
        "meta_mean_motion": 13.78834814,
        "meta_eccentricity": 0.00016581,
        "meta_inclination": 99.3384,
        "meta_ra_of_asc_node": 348.9259,
        "meta_arg_of_pericenter": 81.7421,
        "meta_mean_anomaly": 278.3918,
        "meta_ephemeris_type": 0,
        "meta_classification_type": "U",
        "meta_norad_cat_id": 37781,
        "meta_element_set_no": 999,
        "meta_rev_at_epoch": 72116,
        "meta_bstar": -1.2587349e-05,
        "meta_mean_motion_dot": -5.7e-07,
        "meta_mean_motion_ddot": 0,
        "tle_line1": "1 37781U 11043A   25348.01100146 -.00000057  00000+0 -12587-4 0  9990",
        "tle_line2": "2 37781  99.3384 348.9259 0001658  81.7421 278.3918 13.78834814721169"
      },
      "geometry": {
        "type": "Point",
        "coordinates": [
          -131.681669975852,
          79.11132190380741
        ]
      }
    },
    {
      "type": "Feature",
      "properties": {
        "norad_id": 37791,
        "name": "RASAT",
        "group": "resource",
        "lat": 81.80883428898535,
        "lon": -22.105747998267834,
        "alt_km": 647.2122213023858,
        "timestamp": "2025-12-14T14:39:29.033221+00:00",
        "meta_object_name": "RASAT",
        "meta_object_id": "2011-044D",
        "meta_epoch": "2025-12-14T00:18:10.698048",
        "meta_mean_motion": 14.67913886,
        "meta_eccentricity": 0.00218538,
        "meta_inclination": 98.0644,
        "meta_ra_of_asc_node": 77.2509,
        "meta_arg_of_pericenter": 61.2039,
        "meta_mean_anomaly": 111.1585,
        "meta_ephemeris_type": 0,
        "meta_classification_type": "U",
        "meta_norad_cat_id": 37791,
        "meta_element_set_no": 999,
        "meta_rev_at_epoch": 76601,
        "meta_bstar": 0.00023277743,
        "meta_mean_motion_dot": 1.287e-05,
        "meta_mean_motion_ddot": 0,
        "tle_line1": "1 37791U 11044D   25348.01262382  .00001287  00000+0  23278-3 0  9995",
        "tle_line2": "2 37791  98.0644  77.2509 0021853  61.2039 111.1585 14.67913886766015"
      },
      "geometry": {
        "type": "Point",
        "coordinates": [
          -22.105747998267834,
          81.80883428898535
        ]
      }
    },
    {
      "type": "Feature",
      "properties": {
        "norad_id": 37841,
        "name": "SRMSAT",
        "group": "resource",
        "lat": -17.601191827312626,
        "lon": -22.497616105194698,
        "alt_km": 854.1049140998857,
        "timestamp": "2025-12-14T14:39:29.033232+00:00",
        "meta_object_name": "SRMSAT",
        "meta_object_id": "2011-058D",
        "meta_epoch": "2025-12-13T15:35:14.637408",
        "meta_mean_motion": 14.11511811,
        "meta_eccentricity": 0.00117776,
        "meta_inclination": 19.9712,
        "meta_ra_of_asc_node": 102.4443,
        "meta_arg_of_pericenter": 323.4918,
        "meta_mean_anomaly": 63.7335,
        "meta_ephemeris_type": 0,
        "meta_classification_type": "U",
        "meta_norad_cat_id": 37841,
        "meta_element_set_no": 999,
        "meta_rev_at_epoch": 73157,
        "meta_bstar": 0.0001231682,
        "meta_mean_motion_dot": 4.92e-06,
        "meta_mean_motion_ddot": 0,
        "tle_line1": "1 37841U 11058D   25347.64947497  .00000492  00000+0  12317-3 0  9990",
        "tle_line2": "2 37841  19.9712 102.4443 0011777 323.4918  63.7335 14.11511811731579"
      },
      "geometry": {
        "type": "Point",
        "coordinates": [
          -22.497616105194698,
          -17.601191827312626
        ]
      }
    },
    {
      "type": "Feature",
      "properties": {
        "norad_id": 38012,
        "name": "PLEIADES 1A",
        "group": "resource",
        "lat": -3.6372808270057955,
        "lon": -119.17401607113239,
        "alt_km": 701.5793046426124,
        "timestamp": "2025-12-14T14:39:29.033242+00:00",
        "meta_object_name": "PLEIADES 1A",
        "meta_object_id": "2011-076F",
        "meta_epoch": "2025-12-14T01:11:52.056384",
        "meta_mean_motion": 14.58564024,
        "meta_eccentricity": 0.00012892,
        "meta_inclination": 98.1819,
        "meta_ra_of_asc_node": 60.7979,
        "meta_arg_of_pericenter": 74.6222,
        "meta_mean_anomaly": 45.7628,
        "meta_ephemeris_type": 0,
        "meta_classification_type": "U",
        "meta_norad_cat_id": 38012,
        "meta_element_set_no": 999,
        "meta_rev_at_epoch": 74500,
        "meta_bstar": 0.00018395821,
        "meta_mean_motion_dot": 8.1e-06,
        "meta_mean_motion_ddot": 0,
        "tle_line1": "1 38012U 11076F   25348.04990806  .00000810  00000+0  18396-3 0  9995",
        "tle_line2": "2 38012  98.1819  60.7979 0001289  74.6222  45.7628 14.58564024745000"
      },
      "geometry": {
        "type": "Point",
        "coordinates": [
          -119.17401607113239,
          -3.6372808270057955
        ]
      }
    },
    {
      "type": "Feature",
      "properties": {
        "norad_id": 38038,
        "name": "ZIYUAN 1-02C (ZY 1-02C)",
        "group": "resource",
        "lat": -46.27883052678253,
        "lon": 63.51362514450247,
        "alt_km": 776.9909166660664,
        "timestamp": "2025-12-14T14:39:29.033253+00:00",
        "meta_object_name": "ZIYUAN 1-02C (ZY 1-02C)",
        "meta_object_id": "2011-079A",
        "meta_epoch": "2025-12-14T00:24:31.080096",
        "meta_mean_motion": 14.38014835,
        "meta_eccentricity": 0.00072511,
        "meta_inclination": 98.433,
        "meta_ra_of_asc_node": 54.0068,
        "meta_arg_of_pericenter": 134.8458,
        "meta_mean_anomaly": 346.443,
        "meta_ephemeris_type": 0,
        "meta_classification_type": "U",
        "meta_norad_cat_id": 38038,
        "meta_element_set_no": 999,
        "meta_rev_at_epoch": 73259,
        "meta_bstar": 0.00031704737,
        "meta_mean_motion_dot": 9.16e-06,
        "meta_mean_motion_ddot": 0,
        "tle_line1": "1 38038U 11079A   25348.01702639  .00000916  00000+0  31705-3 0  9994",
        "tle_line2": "2 38038  98.4330  54.0068 0007251 134.8458 346.4430 14.38014835732599"
      },
      "geometry": {
        "type": "Point",
        "coordinates": [
          63.51362514450247,
          -46.27883052678253
        ]
      }
    },
    {
      "type": "Feature",
      "properties": {
        "norad_id": 38046,
        "name": "ZIYUAN 3-1 (ZY 3-1)",
        "group": "resource",
        "lat": -82.43619121793512,
        "lon": 163.48171161622128,
        "alt_km": 369.059548883105,
        "timestamp": "2025-12-14T14:39:29.033263+00:00",
        "meta_object_name": "ZIYUAN 3-1 (ZY 3-1)",
        "meta_object_id": "2012-001A",
        "meta_epoch": "2025-12-13T23:44:36.049632",
        "meta_mean_motion": 15.68809889,
        "meta_eccentricity": 0.00016963,
        "meta_inclination": 97.1757,
        "meta_ra_of_asc_node": 54.4358,
        "meta_arg_of_pericenter": 343.6303,
        "meta_mean_anomaly": 16.4904,
        "meta_ephemeris_type": 0,
        "meta_classification_type": "U",
        "meta_norad_cat_id": 38046,
        "meta_element_set_no": 999,
        "meta_rev_at_epoch": 77516,
        "meta_bstar": 0.00068189419,
        "meta_mean_motion_dot": 0.00078394,
        "meta_mean_motion_ddot": 0,
        "tle_line1": "1 38046U 12001A   25347.98930613  .00078394  00000+0  68189-3 0  9990",
        "tle_line2": "2 38046  97.1757  54.4358 0001696 343.6303  16.4904 15.68809889775164"
      },
      "geometry": {
        "type": "Point",
        "coordinates": [
          163.48171161622128,
          -82.43619121793512
        ]
      }
    },
    {
      "type": "Feature",
      "properties": {
        "norad_id": 38338,
        "name": "ARIRANG-3 (KOMPSAT-3)",
        "group": "resource",
        "lat": 75.22197334239871,
        "lon": 156.96332003388844,
        "alt_km": 682.8465451764523,
        "timestamp": "2025-12-14T14:39:29.033273+00:00",
        "meta_object_name": "ARIRANG-3 (KOMPSAT-3)",
        "meta_object_id": "2012-025B",
        "meta_epoch": "2025-12-13T23:24:22.692096",
        "meta_mean_motion": 14.61715038,
        "meta_eccentricity": 0.00052789,
        "meta_inclination": 98.3323,
        "meta_ra_of_asc_node": 302.5739,
        "meta_arg_of_pericenter": 334.7601,
        "meta_mean_anomaly": 25.3341,
        "meta_ephemeris_type": 0,
        "meta_classification_type": "U",
        "meta_norad_cat_id": 38338,
        "meta_element_set_no": 999,
        "meta_rev_at_epoch": 72428,
        "meta_bstar": 0.00018728773,
        "meta_mean_motion_dot": 8.85e-06,
        "meta_mean_motion_ddot": 0,
        "tle_line1": "1 38338U 12025B   25347.97526264  .00000885  00000+0  18729-3 0  9997",
        "tle_line2": "2 38338  98.3323 302.5739 0005278 334.7601  25.3341 14.61715038724287"
      },
      "geometry": {
        "type": "Point",
        "coordinates": [
          156.96332003388844,
          75.22197334239871
        ]
      }
    }
  ]
}